CCSDS_OMM_VERS = 2.0
CREATION_DATE  = 
ORIGINATOR     = 

OBJECT_NAME    = SL-3 R/B
OBJECT_ID      = 1982-079B
CENTER_NAME    = EARTH
REF_FRAME      = TEME
TIME_SYSTEM    = UTC
MEAN_ELEMENT_THEORY = SGP/SGP4

EPOCH          = 2026-01-18T21:54:03.707424
MEAN_MOTION    = 15.24065994
ECCENTRICITY   = .00250335
INCLINATION    = 81.1452
RA_OF_ASC_NODE = 251.8298
ARG_OF_PERICENTER = 337.2480
MEAN_ANOMALY   = 22.7641

EPHEMERIS_TYPE = 0
CLASSIFICATION_TYPE = U
NORAD_CAT_ID   = 13403
ELEMENT_SET_NO = 999
REV_AT_EPOCH   = 37011
BSTAR          = .21613701E-3
MEAN_MOTION_DOT = .5316E-4
MEAN_MOTION_DDOT = 0

CCSDS_OMM_VERS = 2.0
CREATION_DATE  = 
ORIGINATOR     = 

OBJECT_NAME    = SL-14 R/B
OBJECT_ID      = 1982-092B
CENTER_NAME    = EARTH
REF_FRAME      = TEME
TIME_SYSTEM    = UTC
MEAN_ELEMENT_THEORY = SGP/SGP4

EPOCH          = 2026-01-18T23:32:49.001280
MEAN_MOTION    = 14.86597695
ECCENTRICITY   = .00217994
INCLINATION    = 82.5675
RA_OF_ASC_NODE = 187.8804
ARG_OF_PERICENTER = 105.1307
MEAN_ANOMALY   = 12.9038

EPHEMERIS_TYPE = 0
CLASSIFICATION_TYPE = U
NORAD_CAT_ID   = 13553
ELEMENT_SET_NO = 999
REV_AT_EPOCH   = 32154
BSTAR          = .51600627E-4
MEAN_MOTION_DOT = .484E-5
MEAN_MOTION_DDOT = 0

CCSDS_OMM_VERS = 2.0
CREATION_DATE  = 
ORIGINATOR     = 

OBJECT_NAME    = SL-3 R/B
OBJECT_ID      = 1983-010B
CENTER_NAME    = EARTH
REF_FRAME      = TEME
TIME_SYSTEM    = UTC
MEAN_ELEMENT_THEORY = SGP/SGP4

EPOCH          = 2026-01-18T20:11:30.186240
MEAN_MOTION    = 15.44561441
ECCENTRICITY   = .00164528
INCLINATION    = 81.1026
RA_OF_ASC_NODE = 63.2906
ARG_OF_PERICENTER = 216.5388
MEAN_ANOMALY   = 143.4734

EPHEMERIS_TYPE = 0
CLASSIFICATION_TYPE = U
NORAD_CAT_ID   = 13819
ELEMENT_SET_NO = 999
REV_AT_EPOCH   = 35024
BSTAR          = .25774552E-3
MEAN_MOTION_DOT = .12064E-3
MEAN_MOTION_DDOT = 0

CCSDS_OMM_VERS = 2.0
CREATION_DATE  = 
ORIGINATOR     = 

OBJECT_NAME    = SL-3 R/B
OBJECT_ID      = 1983-075B
CENTER_NAME    = EARTH
REF_FRAME      = TEME
TIME_SYSTEM    = UTC
MEAN_ELEMENT_THEORY = SGP/SGP4

EPOCH          = 2026-01-18T23:19:44.587776
MEAN_MOTION    = 15.37001283
ECCENTRICITY   = .00240186
INCLINATION    = 97.6111
RA_OF_ASC_NODE = 21.7317
ARG_OF_PERICENTER = 50.9421
MEAN_ANOMALY   = 309.3955

EPHEMERIS_TYPE = 0
CLASSIFICATION_TYPE = U
NORAD_CAT_ID   = 14208
ELEMENT_SET_NO = 999
REV_AT_EPOCH   = 32251
BSTAR          = .28339027E-3
MEAN_MOTION_DOT = .10271E-3
MEAN_MOTION_DDOT = 0

CCSDS_OMM_VERS = 2.0
CREATION_DATE  = 
ORIGINATOR     = 

OBJECT_NAME    = COSMOS 1536
OBJECT_ID      = 1984-013A
CENTER_NAME    = EARTH
REF_FRAME      = TEME
TIME_SYSTEM    = UTC
MEAN_ELEMENT_THEORY = SGP/SGP4

EPOCH          = 2026-01-18T20:49:20.478432
MEAN_MOTION    = 15.23047506
ECCENTRICITY   = .00157792
INCLINATION    = 82.5467
RA_OF_ASC_NODE = 157.3304
ARG_OF_PERICENTER = 97.7798
MEAN_ANOMALY   = 262.5231

EPHEMERIS_TYPE = 0
CLASSIFICATION_TYPE = U
NORAD_CAT_ID   = 14699
ELEMENT_SET_NO = 999
REV_AT_EPOCH   = 26503
BSTAR          = .26660924E-3
MEAN_MOTION_DOT = .633E-4
MEAN_MOTION_DDOT = 0

CCSDS_OMM_VERS = 2.0
CREATION_DATE  = 
ORIGINATOR     = 

OBJECT_NAME    = SL-14 R/B
OBJECT_ID      = 1984-027B
CENTER_NAME    = EARTH
REF_FRAME      = TEME
TIME_SYSTEM    = UTC
MEAN_ELEMENT_THEORY = SGP/SGP4

EPOCH          = 2026-01-18T23:56:01.247424
MEAN_MOTION    = 14.85918154
ECCENTRICITY   = .00190146
INCLINATION    = 82.5430
RA_OF_ASC_NODE = 291.6213
ARG_OF_PERICENTER = 134.4837
MEAN_ANOMALY   = 225.7939

EPHEMERIS_TYPE = 0
CLASSIFICATION_TYPE = U
NORAD_CAT_ID   = 14820
ELEMENT_SET_NO = 999
REV_AT_EPOCH   = 24025
BSTAR          = .43536341E-4
MEAN_MOTION_DOT = .405E-5
MEAN_MOTION_DDOT = 0

CCSDS_OMM_VERS = 2.0
CREATION_DATE  = 
ORIGINATOR     = 

OBJECT_NAME    = SL-8 R/B
OBJECT_ID      = 1985-006B
CENTER_NAME    = EARTH
REF_FRAME      = TEME
TIME_SYSTEM    = UTC
MEAN_ELEMENT_THEORY = SGP/SGP4

EPOCH          = 2026-01-18T23:26:23.958816
MEAN_MOTION    = 14.37748434
ECCENTRICITY   = .0019791
INCLINATION    = 74.0467
RA_OF_ASC_NODE = 352.6195
ARG_OF_PERICENTER = 278.8185
MEAN_ANOMALY   = 137.1033

EPHEMERIS_TYPE = 0
CLASSIFICATION_TYPE = U
NORAD_CAT_ID   = 15483
ELEMENT_SET_NO = 999
REV_AT_EPOCH   = 14688
BSTAR          = .97892637E-4
MEAN_MOTION_DOT = .269E-5
MEAN_MOTION_DDOT = 0

CCSDS_OMM_VERS = 2.0
CREATION_DATE  = 
ORIGINATOR     = 

OBJECT_NAME    = SL-12 R/B(2)
OBJECT_ID      = 1985-042D
CENTER_NAME    = EARTH
REF_FRAME      = TEME
TIME_SYSTEM    = UTC
MEAN_ELEMENT_THEORY = SGP/SGP4

EPOCH          = 2026-01-18T21:32:47.233824
MEAN_MOTION    = 14.21963233
ECCENTRICITY   = .0036212
INCLINATION    = 71.1065
RA_OF_ASC_NODE = 192.9199
ARG_OF_PERICENTER = 206.5152
MEAN_ANOMALY   = 258.8825

EPHEMERIS_TYPE = 0
CLASSIFICATION_TYPE = U
NORAD_CAT_ID   = 15772
ELEMENT_SET_NO = 999
REV_AT_EPOCH   = 10731
BSTAR          = .74260319E-4
MEAN_MOTION_DOT = .117E-5
MEAN_MOTION_DDOT = 0

CCSDS_OMM_VERS = 2.0
CREATION_DATE  = 
ORIGINATOR     = 

OBJECT_NAME    = SL-14 R/B
OBJECT_ID      = 1985-069B
CENTER_NAME    = EARTH
REF_FRAME      = TEME
TIME_SYSTEM    = UTC
MEAN_ELEMENT_THEORY = SGP/SGP4

EPOCH          = 2026-01-18T20:41:56.544000
MEAN_MOTION    = 14.86367918
ECCENTRICITY   = .00187831
INCLINATION    = 82.5249
RA_OF_ASC_NODE = 71.8002
ARG_OF_PERICENTER = 2.4131
MEAN_ANOMALY   = 357.7173

EPHEMERIS_TYPE = 0
CLASSIFICATION_TYPE = U
NORAD_CAT_ID   = 15945
ELEMENT_SET_NO = 999
REV_AT_EPOCH   = 16543
BSTAR          = .43671378E-4
MEAN_MOTION_DOT = .41E-5
MEAN_MOTION_DDOT = 0

CCSDS_OMM_VERS = 2.0
CREATION_DATE  = 
ORIGINATOR     = 

OBJECT_NAME    = SL-16 R/B
OBJECT_ID      = 1985-097B
CENTER_NAME    = EARTH
REF_FRAME      = TEME
TIME_SYSTEM    = UTC
MEAN_ELEMENT_THEORY = SGP/SGP4

EPOCH          = 2026-01-18T21:53:35.803680
MEAN_MOTION    = 14.16591487
ECCENTRICITY   = .00088809
INCLINATION    = 71.0012
RA_OF_ASC_NODE = 245.3467
ARG_OF_PERICENTER = 318.3482
MEAN_ANOMALY   = 52.5727

EPHEMERIS_TYPE = 0
CLASSIFICATION_TYPE = U
NORAD_CAT_ID   = 16182
ELEMENT_SET_NO = 999
REV_AT_EPOCH   = 8018
BSTAR          = -.8523741E-4
MEAN_MOTION_DOT = -.218E-5
MEAN_MOTION_DDOT = 0

CCSDS_OMM_VERS = 2.0
CREATION_DATE  = 
ORIGINATOR     = 

OBJECT_NAME    = SL-14 R/B
OBJECT_ID      = 1986-006B
CENTER_NAME    = EARTH
REF_FRAME      = TEME
TIME_SYSTEM    = UTC
MEAN_ELEMENT_THEORY = SGP/SGP4

EPOCH          = 2026-01-18T20:27:27.681408
MEAN_MOTION    = 14.86726270
ECCENTRICITY   = .00782503
INCLINATION    = 82.5289
RA_OF_ASC_NODE = 306.6355
ARG_OF_PERICENTER = 78.1203
MEAN_ANOMALY   = 282.8775

EPHEMERIS_TYPE = 0
CLASSIFICATION_TYPE = U
NORAD_CAT_ID   = 16496
ELEMENT_SET_NO = 999
REV_AT_EPOCH   = 14180
BSTAR          = .66484865E-4
MEAN_MOTION_DOT = .653E-5
MEAN_MOTION_DDOT = 0

CCSDS_OMM_VERS = 2.0
CREATION_DATE  = 
ORIGINATOR     = 

OBJECT_NAME    = COSMOS 1743
OBJECT_ID      = 1986-034A
CENTER_NAME    = EARTH
REF_FRAME      = TEME
TIME_SYSTEM    = UTC
MEAN_ELEMENT_THEORY = SGP/SGP4

EPOCH          = 2026-01-18T18:13:44.649120
MEAN_MOTION    = 15.54641985
ECCENTRICITY   = .00054154
INCLINATION    = 82.5367
RA_OF_ASC_NODE = 126.0716
ARG_OF_PERICENTER = 115.8067
MEAN_ANOMALY   = 244.3745

EPHEMERIS_TYPE = 0
CLASSIFICATION_TYPE = U
NORAD_CAT_ID   = 16719
ELEMENT_SET_NO = 999
REV_AT_EPOCH   = 17248
BSTAR          = .48738817E-3
MEAN_MOTION_DOT = .32374E-3
MEAN_MOTION_DDOT = 0

