SL-3 R/B                
1 13403U 82079B   26018.91254291  .00005316  00000+0  21614-3 0  9998
2 13403  81.1452 251.8298 0025033 337.2480  22.7641 15.24065994370118
SL-14 R/B               
1 13553U 82092B   26018.98112270  .00000484  00000+0  51601-4 0  9997
2 13553  82.5675 187.8804 0021799 105.1307  12.9038 14.86597695321541
SL-3 R/B                
1 13819U 83010B   26018.84132160  .00012064  00000+0  25775-3 0  9997
2 13819  81.1026  63.2906 0016452 216.5388 143.4734 15.44561441350244
SL-3 R/B                
1 14208U 83075B   26018.97204384  .00010271  00000+0  28339-3 0  9990
2 14208  97.6111  21.7317 0024018  50.9421 309.3955 15.37001283322516
COSMOS 1536             
1 14699U 84013A   26018.86759813  .00006330  00000+0  26661-3 0  9994
2 14699  82.5467 157.3304 0015779  97.7798 262.5231 15.23047506265032
SL-14 R/B               
1 14820U 84027B   26018.99723666  .00000405  00000+0  43536-4 0  9994
2 14820  82.5430 291.6213 0019014 134.4837 225.7939 14.85918154240254
SL-8 R/B                
1 15483U 85006B   26018.97666619  .00000269  00000+0  97893-4 0  9993
2 15483  74.0467 352.6195 0019791 278.8185 137.1033 14.37748434146888
SL-12 R/B(2)            
1 15772U 85042D   26018.89776891  .00000117  00000+0  74260-4 0  9994
2 15772  71.1065 192.9199 0036212 206.5152 258.8825 14.21963233107313
SL-14 R/B               
1 15945U 85069B   26018.86246000  .00000410  00000+0  43671-4 0  9994
2 15945  82.5249  71.8002 0018783   2.4131 357.7173 14.86367918165437
SL-16 R/B               
1 16182U 85097B   26018.91221995 -.00000218  00000+0 -85237-4 0  9993
2 16182  71.0012 245.3467 0008880 318.3482  52.5727 14.16591487 80186
SL-14 R/B               
1 16496U 86006B   26018.85240372  .00000653  00000+0  66485-4 0  9990
2 16496  82.5289 306.6355 0078250  78.1203 282.8775 14.86726270141809
COSMOS 1743             
1 16719U 86034A   26018.75954455  .00032374  00000+0  48739-3 0  9998
2 16719  82.5367 126.0716 0005415 115.8067 244.3745 15.54641985172482
